# From MPEC 2021-WD8
404P/Bressi,e,9.7282,260.4969,167.2714,4.776949,0.0944013,0.13381427,314.2834,06/24.0/2022,2000,g 10.0,4.0
# From MPEC 2021-L04
405P/Lemmon,e,9.3656,3.3166,112.2045,3.606970,0.1438766,0.68915483,78.6601,06/24.0/2022,2000,g 17.5,4.0
# From MPEC 2021-F20
406P/Gibbs,e,1.2134,11.4798,352.4114,3.576033,0.1457477,0.54207997,94.1741,06/24.0/2022,2000,g 17.0,4.0
# From MPEC 2021-F20
407P/PANSTARRS-Fuls,e,4.8772,80.5623,93.2955,3.471239,0.1523973,0.38204978,133.2787,06/24.0/2022,2000,g 14.0,4.0
# From MPEC 2022-L66
408P/Novichonok-Gerke,e,19.3562,189.4397,226.4245,4.745994,0.0953264,0.26936621,350.1959,06/24.0/2022,2000,g 11.0,4.0
# From MPEC 2022-ED3
409P/LONEOS-Hill,e,17.1191,143.6701,15.1147,6.041985,0.0663643,0.70969998,33.9741,06/24.0/2022,2000,g 14.0,4.0
# From MPEC 2022-M21
410P/NEAT-LINEAR,e,9.3933,139.9803,313.0925,6.638089,0.0576288,0.51088706,21.0581,06/24.0/2022,2000,g 12.5,4.0
# From MPEC 2021-J28
411P/Christensen,e,12.3798,77.6590,46.6324,5.814739,0.0702925,0.58078204,36.2491,06/24.0/2022,2000,g 13.5,4.0
# From MPEC 2021-F20
412P/WISE,e,8.9313,0.8449,155.9437,3.109848,0.1797196,0.47943675,101.6845,06/24.0/2022,2000,g 17.0,4.0
# From MPEC 2021-O56
413P/Larson,e,15.9781,39.0111,186.1293,3.712254,0.1377995,0.42332441,46.6609,06/24.0/2022,2000,g 14.0,4.0
# From MPEC 2021-BE3
414P/STEREO,e,23.3875,257.7912,210.7164,2.793779,0.2110649,0.81163713,108.6291,06/24.0/2022,2000,g 19.0,4.0
# From MPEC 2022-J42
415P/Tenagra,e,31.7923,160.2947,346.1292,4.113787,0.1181249,0.19464890,58.4186,06/24.0/2022,2000,g 12.0,4.0
# From MPEC 2021-L04
416P/Scotti,e,3.3613,355.8109,134.4581,4.011224,0.1226842,0.45428605,60.5650,06/24.0/2022,2000,g 15.5,4.0
# From MPEC 2021-W31
417P/NEOWISE,e,8.1227,111.2138,129.5110,3.349249,0.1607989,0.55558459,68.7467,06/24.0/2022,2000,g 16.5,4.0
# From MPEC 2021-L04
418P/LINEAR,e,5.7961,277.6495,307.1406,5.082739,0.0860117,0.66487733,21.4500,06/24.0/2022,2000,g 13.0,4.0
# From MPEC 2022-M21
419P/PANSTARRS,e,2.8030,40.3897,187.5224,3.520555,0.1492064,0.27753787,35.7306,06/24.0/2022,2000,g 12.5,4.0
# From MPEC 2021-S45
420P/Hill,e,14.5047,173.9511,157.0813,5.534944,0.0756893,0.49621259,2.4628,06/24.0/2022,2000,g 11.5,4.0
# From MPEC 2021-W31
421P/McNaught,e,10.0788,55.3462,259.8456,5.075750,0.0861894,0.67544466,44.3194,06/24.0/2022,2000,g 14.0,4.0
# From MPEC 2022-A21
422P/Christensen,e,39.5553,36.0275,305.1447,6.319140,0.0620465,0.50862454,10.0072,06/24.0/2022,2000,g 11.0,4.0
# From MPEC 2022-A21
423P/Lemmon,e,8.3460,33.3015,80.2859,6.167057,0.0643557,0.12116562,17.9344,06/24.0/2022,2000,g  8.0,4.0
# From MPEC 2022-CN4
424P/LaSagra,e,8.6853,51.1759,312.4851,4.414569,0.1062604,0.69128699,25.0094,06/24.0/2022,2000,g 17.0,4.0
# From MPEC 2022-GA9
425P/Kowalski,e,16.4203,210.0826,200.7630,6.332923,0.0618440,0.54361396,17.0984,06/24.0/2022,2000,g 12.0,4.0
# From MPEC 2021-Y10
426P/PANSTARRS,e,17.7719,280.5206,119.0829,3.186661,0.1732608,0.16136733,282.5823,06/24.0/2022,2000,g 13.5,4.0
# From MPEC 2022-J42
428P/Gibbs,e,8.5144,299.3384,36.8310,3.484689,0.1515158,0.51947533,61.4137,06/24.0/2022,2000,g 15.0,4.0
# From MPEC 2022-H04
429P/LINEAR-Hill,e,7.5219,322.0737,75.5440,3.550953,0.1472945,0.49132380,25.4591,06/24.0/2022,2000,g 15.5,4.0
# From MPEC 2022-L66
430P/Scotti,e,4.4751,54.6719,94.4901,3.106335,0.1800245,0.49956104,36.6885,06/24.0/2022,2000,g 16.5,4.0
# From MPEC 2022-ED3
431P/Scotti,e,22.3920,202.8455,199.8623,3.472486,0.1523152,0.47769004,19.8957,06/24.0/2022,2000,g 14.0,4.0
# From MPEC 2021-U31
432P/PANSTARRS,e,10.0694,239.1429,105.2362,3.035394,0.1863723,0.24199059,55.4756,06/24.0/2022,2000,g 17.0,4.0
# From MPEC 2022-K19
434P/Tenagra,e,6.3393,288.9683,128.0693,4.128569,0.1174910,0.27442718,28.3263,06/24.0/2022,2000,g 13.0,4.0
# From MPEC 2021-W31
435P/PANSTARRS,e,18.8824,98.5501,244.1595,3.018467,0.1879422,0.31869448,62.3074,06/24.0/2022,2000,g 17.0,4.0
# From MPEC 2022-C56
436P/Garradd,e,20.2102,87.1897,282.6001,5.929075,0.0682690,0.66981562,13.4826,06/24.0/2022,2000,g 14.5,4.0
# From MPEC 2021-Y10
437P/PANSTARRS,e,3.6895,245.8682,206.7144,4.559163,0.1012457,0.25420985,354.3874,06/24.0/2022,2000,g 13.0,4.0
# From MPEC 2021-W47
438P/Christensen,e,8.2869,260.1529,58.9628,3.847433,0.1306013,0.41567888,105.7411,06/24.0/2022,2000,g 14.5,4.0
# From MPEC 2022-C56
439P/LINEAR,e,7.1142,56.4139,342.0100,3.488056,0.1512965,0.46953316,45.6718,06/24.0/2022,2000,g 13.5,4.0
# From MPEC 2022-L66
440P/Kobayashi,e,12.3392,328.8819,183.3147,8.584248,0.0391878,0.76046773,3.3724,06/24.0/2022,2000,g 15.5,4.0
# From MPEC 2022-HC2
441P/PANSTARRS,e,2.5746,143.6166,178.7486,4.134674,0.1172309,0.19558401,222.5947,06/24.0/2022,2000,g 13.5,4.0
# From MPEC 2022-M21
442P/McNaught,e,6.0577,32.0236,310.9928,4.975969,0.0887948,0.53324989,355.0090,06/24.0/2022,2000,g 13.5,4.0
# From MPEC 2022-M21
443P/PANSTARRS-Christensen,e,19.8855,108.9469,145.1035,4.128774,0.1174823,0.28400515,347.2965,06/24.0/2022,2000,g 13.5,4.0
# From MPC107687
1I/`Oumuamua,h,09/09.4886/2017,122.6778,24.5997,241.6845,1.199252,0.255240,2000,23.0,2.0
# From MPEC 2020-K19
2I/Borisov,h,12/08.5549/2019,44.0527,308.1480,209.1251,3.356636,2.006548,2000,11.0,4.0
